From:	Horizons Ephemeris System <horizons@ssd.jpl.nasa.gov>
Sent:	Friday, December 4, 2020 11:15 AM
Subject:	[Horizons] MAJOR BODY #C(usr={90.,-10.,.600^G}@301)_T(301) (1/1)

 Automated mail xmit by MAIL_REQUEST, PID= 3018 Fri Dec  4 09:15:24 2020
++++++++++++++++++++++++++++++++ (part 1 of 1)  +++++++++++++++++++++++++++++++
*******************************************************************************
 Revised: July 31, 2013             Moon / (Earth)                          301
 
 GEOPHYSICAL DATA (updated 2018-Aug-15):
  Vol. mean radius, km  = 1737.53+-0.03    Mass, x10^22 kg       =    7.349
  Radius (gravity), km  = 1738.0           Surface emissivity    =    0.92
  Radius (IAU), km      = 1737.4           GM, km^3/s^2          = 4902.800066
  Density, g/cm^3       =    3.3437        GM 1-sigma, km^3/s^2  =  +-0.0001  
  V(1,0)                =   +0.21          Surface accel., m/s^2 =    1.62
  Earth/Moon mass ratio = 81.3005690769    Farside crust. thick. = ~80 - 90 km
  Mean crustal density  = 2.97+-.07 g/cm^3 Nearside crust. thick.= 58+-8 km 
  Heat flow, Apollo 15  = 3.1+-.6 mW/m^2   Mean angular diameter = 31'05.2"
  Heat flow, Apollo 17  = 2.2+-.5 mW/m^2   Sid. rot. rate, rad/s = 0.0000026617
  Geometric Albedo      = 0.12             Mean solar day        = 29.5306 d
  Obliquity to orbit    = 6.67 deg         Orbit period          = 27.321582 d
  Semi-major axis, a    = 384400 km        Eccentricity          = 0.05490
  Mean motion, rad/s    = 2.6616995x10^-6  Inclination           = 5.145 deg
  Apsidal period        = 3231.50 d        Nodal period          = 6798.38 d
                                 Perihelion  Aphelion    Mean
  Solar Constant (W/m^2)         1414+-7     1323+-7     1368+-7
  Maximum Planetary IR (W/m^2)   1314        1226        1268
  Minimum Planetary IR (W/m^2)      5.2         5.2         5.2
********************************************************************************
 
 
*******************************************************************************
Ephemeris / MAIL_REQUEST Fri Dec  4 09:15:23 2020 Pasadena, USA  / Horizons
*******************************************************************************
Target body name: Moon (301)                      {source: DE431mx}
Center body name: Moon (301)                      {source: DE431mx}
Center-site name: (user defined site below)
*******************************************************************************
Start time      : A.D. 2020-Jan-01 00:00:00.0000 TDB
Stop  time      : A.D. 2039-Jan-01 00:00:00.0000 TDB
Step-size       : 10000 steps
*******************************************************************************
Center geodetic : 90.0000000,-10.000000,0.6000000 {E-lon(deg),Lat(deg),Alt(km)}
Center cylindric: 90.0000000,1711.59587,-301.8005 {E-lon(deg),Dxy(km),Dz(km)}
Center pole/equ : IAU_MOON                        {East-longitude positive}
Center radii    : 1737.4 x 1737.4 x 1737.4 km     {Equator, meridian, pole}    
Output units    : KM-S
Output type     : GEOMETRIC cartesian states
Output format   : 3 (position, velocity, LT, range, range-rate)
Reference frame : Ecliptic of J2000.0
*******************************************************************************
JDTDB
   X     Y     Z
   VX    VY    VZ
   LT    RG    RR
*******************************************************************************
$$SOE
2461231.308000001 = A.D. 2026-Jul-09 19:23:31.2001 TDB 
  -1.280011587314050E+03  1.139130861883277E+03  2.908525672000001E+02
  -3.012165716385621E-03 -3.415307465306068E-03  1.199065114071737E-04
   5.797343974543885E-03  1.738000000000000E+03  1.916380364715459E-19
2461232.002000001 = A.D. 2026-Jul-10 12:02:52.8001 TDB 
  -1.443546520956799E+03  9.208286061186839E+02  2.981478156670693E+02
  -2.430910110389959E-03 -3.850635377660879E-03  1.229033819638732E-04
   5.797343974543886E-03  1.738000000000001E+03 -3.952534502225635E-19
2461232.696000001 = A.D. 2026-Jul-11 04:42:14.4001 TDB 
  -1.570298458826626E+03  6.793077824615259E+02  3.055285369551112E+02
  -1.787884970219496E-03 -4.188111848224685E-03  1.227510837355961E-04
   5.797343974543886E-03  1.738000000000001E+03 -4.950649275514936E-19
2461233.390000001 = A.D. 2026-Jul-11 21:21:36.0001 TDB 
  -1.657046571062141E+03  4.207057579516050E+02  3.128055730922466E+02
  -1.099427455215874E-03 -4.419164175109742E-03  1.194522163902255E-04
   5.797343974543886E-03  1.738000000000001E+03 -3.832760729430918E-19
2461234.084000001 = A.D. 2026-Jul-12 14:00:57.6001 TDB 
  -1.701586365377180E+03  1.515938275554052E+02  3.197923585853516E+02
  -3.830281700338044E-04 -4.537922193372744E-03  1.130905157242770E-04
   5.797343974543886E-03  1.738000000000001E+03  1.517134455399739E-19
2461234.778000001 = A.D. 2026-Jul-13 06:40:19.2001 TDB 
  -1.702785665557574E+03 -1.211896515249814E+02  3.263097386455178E+02
   3.431125277049230E-04 -4.541367185349070E-03  1.038289183472243E-04
   5.797343974543886E-03  1.738000000000001E+03  1.596983637262883E-20
2461235.472000001 = A.D. 2026-Jul-13 23:19:40.8001 TDB 
  -1.660613389022021E+03 -3.907129054410664E+02  3.321906045068096E+02
   1.060546205763836E-03 -4.429408634480926E-03  9.190540487882121E-05
   5.797343974543885E-03  1.738000000000000E+03 -5.669291912283235E-19
2461236.166000001 = A.D. 2026-Jul-14 15:59:02.4001 TDB 
  -1.576140391835092E+03 -6.501267748512358E+02  3.372842152361335E+02
   1.751044400429705E-03 -4.204886868073679E-03  7.762672569937182E-05
   5.797343974543885E-03  1.738000000000000E+03 -2.036154137510176E-19
2461236.860000001 = A.D. 2026-Jul-15 08:38:24.0001 TDB 
  -1.451512352907280E+03 -8.928386751879399E+02  3.414600847042276E+02
   2.397061232815435E-03 -3.873501476510315E-03  6.136021286033428E-05
   5.797343974543884E-03  1.738000000000001E+03  5.130309934707011E-19
2461237.554000001 = A.D. 2026-Jul-16 01:17:45.6001 TDB 
  -1.289895374162125E+03 -1.112680078400258E+03  3.446113272171270E+02
   2.982178921504426E-03 -3.443667248638525E-03  4.352396566287471E-05
   5.797343974543886E-03  1.738000000000001E+03 -1.018077068755088E-19
2461238.248000001 = A.D. 2026-Jul-16 17:57:07.2001 TDB 
  -1.095395662985999E+03 -1.304063267732702E+03  3.466573744517402E+02
   3.491524915985115E-03 -2.926301182993414E-03  2.457575618191655E-05
   5.797343974543885E-03  1.738000000000000E+03  1.259620843891099E-18
2461238.942000001 = A.D. 2026-Jul-17 10:36:28.8001 TDB 
  -8.729553203273342E+02 -1.462123383268621E+03  3.475459981230196E+02
   3.912150057675394E-03 -2.334545878862092E-03  5.001030017184297E-06
   5.797343974543886E-03  1.738000000000001E+03 -4.906981754183530E-19
2461239.636000001 = A.D. 2026-Jul-18 03:15:50.4001 TDB 
  -6.282268657302554E+02 -1.582842143461567E+03  3.472545954436502E+02
   4.233358127735471E-03 -1.683436235656301E-03 -1.469962267774223E-05
   5.797343974543884E-03  1.738000000000000E+03 -7.984918186314416E-21
2461240.330000001 = A.D. 2026-Jul-18 19:55:12.0001 TDB 
  -3.674296738013493E+02 -1.663150088035863E+03  3.457907162960521E+02
   4.446978343887112E-03 -9.895178506592584E-04 -3.402317525154483E-05
   5.797343974543885E-03  1.738000000000001E+03 -1.487191012201059E-19
2461241.024000001 = A.D. 2026-Jul-19 12:34:33.6001 TDB 
  -9.719196079567617E+01 -1.701004729551342E+03  3.431918309060678E+02
   4.547573795905634E-03 -2.704267631237319E-04 -5.247674146577524E-05
   5.797343974543885E-03  1.738000000000000E+03  2.195852501236464E-20
2461241.718000001 = A.D. 2026-Jul-20 05:13:55.2001 TDB 
   1.756176672915999E+02 -1.695442611226776E+03  3.395243540183678E+02
   4.532580427512443E-03  4.555587897070004E-04 -6.958975762272779E-05
   5.797343974543884E-03  1.738000000000000E+03 -5.789065685077951E-20
2461242.412000001 = A.D. 2026-Jul-20 21:53:16.8001 TDB 
   4.440648227843191E+02 -1.646603931938453E+03  3.348819560537119E+02
   4.402372940706774E-03  1.169983192889040E-03 -8.492554919224807E-05
   5.797343974543885E-03  1.738000000000001E+03  1.357436091673450E-19
2461243.106000001 = A.D. 2026-Jul-21 14:32:38.4001 TDB 
   7.013256566524881E+02 -1.555729098612600E+03  3.293832039600440E+02
   4.160255870967256E-03  1.854682987897646E-03 -9.809209208575290E-05
   5.797343974543885E-03  1.738000000000000E+03  1.756682000989171E-19
2461243.800000001 = A.D. 2026-Jul-22 07:12:00.0001 TDB 
   9.408603997643054E+02 -1.425127283295959E+03  3.231685853557440E+02
   3.812380007614872E-03  2.492249118238314E-03 -1.087517922188195E-04
   5.797343974543884E-03  1.738000000000000E+03 -7.266275549546119E-19
2461244.494000001 = A.D. 2026-Jul-22 23:51:21.6001 TDB 
   1.156579702081955E+03 -1.258117778134029E+03  3.163969801927796E+02
   3.367586259497006E-03  3.066470061555611E-03 -1.166301023574404E-04
   5.797343974543884E-03  1.738000000000000E+03 -6.308085367188389E-19
2461245.188000001 = A.D. 2026-Jul-23 16:30:43.2001 TDB 
   1.342999529254520E+03 -1.058945637374931E+03  3.092416555167503E+02
   2.837180937894178E-03  3.562744513084761E-03 -1.215227771510802E-04
   5.797343974543886E-03  1.738000000000001E+03  1.652878064567084E-18
2461245.882000001 = A.D. 2026-Jul-24 09:10:04.8001 TDB 
   1.495380667792643E+03 -8.326737530272140E+02  3.018858715004815E+02
   2.234648193949733E-03  3.968453072959399E-03 -1.233015456857296E-04
   5.797343974543885E-03  1.738000000000000E+03 -5.349895184830658E-19
2461246.576000001 = A.D. 2026-Jul-25 01:49:26.4001 TDB 
   1.609849283235757E+03 -5.850541126982600E+02  2.945182005923803E+02
   1.575306958815099E-03  4.273279451140704E-03 -1.219179692587221E-04
   5.797343974543885E-03  1.738000000000000E+03 -8.983032959603716E-19
2461247.270000001 = A.D. 2026-Jul-25 18:28:48.0001 TDB 
   1.683495459800241E+03 -3.223815190338071E+02  2.873276753419901E+02
   8.759211496366849E-04  4.469473006136947E-03 -1.174052639279853E-04
   5.797343974543886E-03  1.738000000000001E+03  1.557059046331311E-19
